QIANFAN-17              
1 60395U 24140S   25365.47220412  .00000160  00000+0  22883-3 0  9999
2 60395  88.9787 297.4995 0015470 144.9753 215.2419 13.50981098 70664
QIANFAN-18              
1 60396U 24140T   25365.45162013  .00000178  00000+0  25606-3 0  9995
2 60396  88.9780 297.0339 0015305 128.3452 231.9077 13.50981247 70059
QIANFAN-19              
1 61552U 24185A   25365.47526980  .00000802  00000+0  41276-3 0  9993
2 61552  88.9810  75.7981 0005280 231.1568 128.9148 14.14317604 72310
QIANFAN-20              
1 61553U 24185B   25365.50923618  .00000814  00000+0  46329-3 0  9994
2 61553  88.9808  76.1369 0003595 289.4100  70.6695 14.08864572 72132
QIANFAN-21              
1 61554U 24185C   25365.46036785  .00001078  00000+0  47598-3 0  9992
2 61554  88.9724  74.7902 0008609 308.3240  51.7177 14.22636573 72638
QIANFAN-22              
1 61555U 24185D   25365.48399207  .00000285  00000+0  23479-3 0  9997
2 61555  88.9793  77.1961 0004557 307.7547  52.3210 13.86310969 71538
QIANFAN-23              
1 61556U 24185E   25365.49493072  .00000783  00000+0  38782-3 0  9990
2 61556  88.9802  75.5966 0005706 247.5256 112.5328 14.16313114 72407
QIANFAN-24              
1 61557U 24185F   25365.51754512  .00001084  00000+0  46756-3 0  9998
2 61557  88.9782  74.9682 0007941 226.2997 133.7538 14.23837958 72696
